STRIX-4                 
1 60352U 24137A   26068.65404516  .00020530  00000+0  71820-3 0  9996
2 60352  43.0134 129.8162 0016840   5.2738 354.8289 15.29026223 88766
STARLINK-32628          
1 62122U 24222J   26068.52081734  .00022673  00000+0  83082-3 0  9990
2 62122  43.0014 137.0954 0001489 276.6665  83.4017 15.27584243 72896
